[{"OBJECT_NAME":"TIANYAN 02","OBJECT_ID":"2019-093D","EPOCH":"2026-03-09T23:02:03.462720","MEAN_MOTION":15.03854369,"ECCENTRICITY":0.0013821,"INCLINATION":97.7892,"RA_OF_ASC_NODE":162.9238,"ARG_OF_PERICENTER":3.6432,"MEAN_ANOMALY":356.4891,"EPHEMERIS_TYPE":0,"CLASSIFICATION_TYPE":"U","NORAD_CAT_ID":44882,"ELEMENT_SET_NO":999,"REV_AT_EPOCH":33769,"BSTAR":0.0006063204,"MEAN_MOTION_DOT":8.303e-5,"MEAN_MOTION_DDOT":0},{"OBJECT_NAME":"STARLINK-35001","OBJECT_ID":"2025-184H","EPOCH":"2026-03-09T16:49:00.914592","MEAN_MOTION":15.05647396,"ECCENTRICITY":7.678e-5,"INCLINATION":97.6036,"RA_OF_ASC_NODE":122.6897,"ARG_OF_PERICENTER":108.4244,"MEAN_ANOMALY":251.7066,"EPHEMERIS_TYPE":0,"CLASSIFICATION_TYPE":"U","NORAD_CAT_ID":65280,"ELEMENT_SET_NO":999,"REV_AT_EPOCH":3130,"BSTAR":0.00010110195,"MEAN_MOTION_DOT":1.398e-5,"MEAN_MOTION_DDOT":0}]
